[{"OBJECT_NAME":"STARLINK-4772","OBJECT_ID":"2022-119AY","EPOCH":"2026-03-09T21:15:35.911584","MEAN_MOTION":15.08818879,"ECCENTRICITY":0.00013895,"INCLINATION":53.2179,"RA_OF_ASC_NODE":298.3347,"ARG_OF_PERICENTER":80.9598,"MEAN_ANOMALY":279.1551,"EPHEMERIS_TYPE":0,"CLASSIFICATION_TYPE":"U","NORAD_CAT_ID":53932,"ELEMENT_SET_NO":999,"REV_AT_EPOCH":19207,"BSTAR":0.00013629849,"MEAN_MOTION_DOT":1.881e-5,"MEAN_MOTION_DDOT":0},{"OBJECT_NAME":"DISKSAT A","OBJECT_ID":"2025-305D","EPOCH":"2026-03-09T13:08:58.223040","MEAN_MOTION":15.07741062,"ECCENTRICITY":0.0004082,"INCLINATION":45.0023,"RA_OF_ASC_NODE":251.6019,"ARG_OF_PERICENTER":318.1929,"MEAN_ANOMALY":41.8634,"EPHEMERIS_TYPE":0,"CLASSIFICATION_TYPE":"U","NORAD_CAT_ID":67222,"ELEMENT_SET_NO":999,"REV_AT_EPOCH":1226,"BSTAR":0.00090452,"MEAN_MOTION_DOT":0.00013824,"MEAN_MOTION_DDOT":0}]
